[{"OBJECT_NAME":"YAOGAN-35 01A","OBJECT_ID":"2021-101A","EPOCH":"2026-03-09T18:43:20.235648","MEAN_MOTION":15.24952145,"ECCENTRICITY":0.00056881,"INCLINATION":34.9903,"RA_OF_ASC_NODE":183.8731,"ARG_OF_PERICENTER":189.0601,"MEAN_ANOMALY":171.0012,"EPHEMERIS_TYPE":0,"CLASSIFICATION_TYPE":"U","NORAD_CAT_ID":49390,"ELEMENT_SET_NO":999,"REV_AT_EPOCH":24168,"BSTAR":0.00047335489,"MEAN_MOTION_DOT":0.00012075,"MEAN_MOTION_DDOT":0},{"OBJECT_NAME":"STARLINK-30962","OBJECT_ID":"2023-183X","EPOCH":"2026-03-09T07:16:45.843168","MEAN_MOTION":15.26735702,"ECCENTRICITY":0.00023053,"INCLINATION":43.0039,"RA_OF_ASC_NODE":43.0767,"ARG_OF_PERICENTER":272.6692,"MEAN_ANOMALY":87.3895,"EPHEMERIS_TYPE":0,"CLASSIFICATION_TYPE":"U","NORAD_CAT_ID":58458,"ELEMENT_SET_NO":999,"REV_AT_EPOCH":12668,"BSTAR":-3.0200316e-5,"MEAN_MOTION_DOT":-1.07e-5,"MEAN_MOTION_DDOT":0}]
